NORAD_CAT_ID,OBJECT_NAME,OBJECT_TYPE,EPOCH,MEAN_MOTION,ECCENTRICITY,INCLINATION,RA_OF_ASC_NODE,ARG_OF_PERICENTER,MEAN_ANOMALY,BSTAR,MEAN_MOTION_DOT,MEAN_MOTION_DDOT,TLE_LINE0,TLE_LINE1,TLE_LINE2,SEMIMAJOR_AXIS,PERIOD,APOGEE,PERIGEE,DECAYED
52110.0,STARLINK-3687,PAYLOAD,2023-01-27 13:16:16,15.08836193,0.000136,53.2175,143.9201,93.4011,266.7137,0.00017511,2.5e-05,0.0,0 STARLINK-3687,1 52110U 22029Y   23027.55297273  .00002500  00000-0  17511-3 0  9993,2 52110  53.2175 143.9201 0001360  93.4011 266.7137 15.08836193 49113,6917.892,95.438,540.698,538.816,0.0
52110.0,STARLINK-3687,PAYLOAD,2023-01-27 14:51:39,15.0883691,0.0001346,53.2176,143.6228,92.9569,267.1577,0.00017835,2.551e-05,0.0,0 STARLINK-3687,1 52110U 22029Y   23027.61921227  .00002551  00000-0  17835-3 0  9998,2 52110  53.2176 143.6228 0001346  92.9569 267.1577 15.08836910 49127,6917.89,95.438,540.686,538.8240000000001,0.0
52110.0,STARLINK-3687,PAYLOAD,2023-01-28 11:31:41,15.08836421,0.0001495,53.2172,139.7576,89.4793,270.637,-3.7166e-05,-8.79e-06,0.0,0 STARLINK-3687,1 52110U 22029Y   23028.48034181 -.00000879  00000-0 -37166-4 0  9991,2 52110  53.2172 139.7576 0001495  89.4793 270.6370 15.08836421 49251,6917.891,95.438,540.791,538.722,0.0
52110.0,STARLINK-3687,PAYLOAD,2023-01-28 13:07:04,15.08842836,0.0001692,53.2184,139.4616,104.0045,256.1135,-6.5918e-05,-1.337e-05,0.0,0 STARLINK-3687,1 52110U 22029Y   23028.54657872 -.00001337  00000-0 -65918-4 0  9992,2 52110  53.2184 139.4616 0001692 104.0045 256.1135 15.08842836 49265,6917.872,95.437,540.907,538.566,0.0
52110.0,STARLINK-3687,PAYLOAD,2023-01-28 16:17:50,15.08847181,0.0001709,53.2188,138.8641,99.9337,260.1849,-2.9816e-05,-7.63e-06,0.0,0 STARLINK-3687,1 52110U 22029Y   23028.67905457 -.00000763  00000-0 -29816-4 0  9990,2 52110  53.2188 138.8641 0001709  99.9337 260.1849 15.08847181 49282,6917.858,95.437,540.906,538.541,0.0
52110.0,STARLINK-3687,PAYLOAD,2023-01-29 11:22:28,15.08829512,0.0001387,53.219,135.2961,80.1439,279.971,6.3189e-05,7.18e-06,0.0,0 STARLINK-3687,1 52110U 22029Y   23029.47394463  .00000718  00000-0  63189-4 0  9997,2 52110  53.2190 135.2961 0001387  80.1439 279.9710 15.08829512 49405,6917.912,95.438,540.737,538.818,0.0
52110.0,STARLINK-3687,PAYLOAD,2023-01-29 16:08:37,15.08840257,0.0001489,53.2188,134.4037,79.4922,280.6238,1.6036e-05,-3.3e-07,0.0,0 STARLINK-3687,1 52110U 22029Y   23029.67265986 -.00000033  00000-0  16036-4 0  9996,2 52110  53.2188 134.4037 0001489  79.4922 280.6238 15.08840257 49434,6917.88,95.438,540.775,538.715,0.0
52110.0,STARLINK-3687,PAYLOAD,2023-01-30 11:13:15,15.08835598,0.0001223,53.218,130.8358,94.393,265.7202,8.266e-05,1.028e-05,0.0,0 STARLINK-3687,1 52110U 22029Y   23030.46754134  .00001028  00000-0  82660-4 0  9993,2 52110  53.2180 130.8358 0001223  94.3930 265.7202 15.08835598 49553,6917.894,95.438,540.605,538.913,0.0
52110.0,STARLINK-3687,PAYLOAD,2023-01-30 23:56:20,15.08841706,0.0001238,53.2181,128.4572,96.1761,263.9373,1.2106e-05,-9.5e-07,0.0,0 STARLINK-3687,1 52110U 22029Y   23030.99745995 -.00000095  00000-0  12106-4 0  9998,2 52110  53.2181 128.4572 0001238  96.1761 263.9373 15.08841706 49639,6917.875,95.437,540.597,538.884,0.0
52110.0,STARLINK-3687,PAYLOAD,2023-01-31 12:39:25,15.08841764,0.0001143,53.2178,126.0791,92.7649,267.3474,4.9917e-05,5.07e-06,0.0,0 STARLINK-3687,1 52110U 22029Y   23031.52737969  .00000507  00000-0  49917-4 0  9997,2 52110  53.2178 126.0791 0001143  92.7649 267.3474 15.08841764 49717,6917.875,95.437,540.531,538.949,0.0
52110.0,STARLINK-3687,PAYLOAD,2023-02-01 10:54:48,15.08846368,0.0001122,53.2171,121.9171,89.8377,270.2744,0.00010799,1.432e-05,0.0,0 STARLINK-3687,1 52110U 22029Y   23032.45473351  .00001432  00000-0  10799-3 0  9995,2 52110  53.2171 121.9171 0001122  89.8377 270.2744 15.08846368 49851,6917.861,95.437,540.502,538.95,0.0
52110.0,STARLINK-3687,PAYLOAD,2023-02-01 12:30:11,15.08849549,0.0001153,53.217,121.6201,84.867,275.2454,9.4651e-05,1.219e-05,0.0,0 STARLINK-3687,1 52110U 22029Y   23032.52097203  .00001219  00000-0  94651-4 0  9994,2 52110  53.2170 121.6201 0001153  84.8670 275.2454 15.08849549 49864,6917.851,95.437,540.514,538.919,0.0
52110.0,STARLINK-3687,PAYLOAD,2023-02-02 12:21:00,15.08837336,0.0001195,53.2169,117.16,77.4695,282.6431,-7.6051e-06,-4.09e-06,0.0,0 STARLINK-3687,1 52110U 22029Y   23033.51458510 -.00000409  00000-0 -76051-5 0  9993,2 52110  53.2169 117.1600 0001195  77.4695 282.6431 15.08837336 50013,6917.889,95.438,540.58,538.927,0.0
52110.0,STARLINK-3687,PAYLOAD,2023-02-02 15:31:46,15.08840722,0.0001164,53.2171,116.5643,85.3878,274.7247,1.064e-05,-1.18e-06,0.0,0 STARLINK-3687,1 52110U 22029Y   23033.64706210 -.00000118  00000-0  10640-4 0  9997,2 52110  53.2171 116.5643 0001164  85.3878 274.7247 15.08840722 50035,6917.878,95.438,540.548,538.938,0.0
52110.0,STARLINK-3687,PAYLOAD,2023-02-03 09:01:01,15.08833771,0.0001218,53.2173,113.2931,84.5346,275.5785,-8.0948e-05,-1.576e-05,0.0,0 STARLINK-3687,1 52110U 22029Y   23034.37571177 -.00001576  00000-0 -80948-4 0  9998,2 52110  53.2173 113.2931 0001218  84.5346 275.5785 15.08833771 50146,6917.899,95.438,540.607,538.922,0.0
52110.0,STARLINK-3687,PAYLOAD,2023-02-04 12:02:33,15.08849403,0.0001096,53.2167,108.2387,94.3418,265.77,0.00014764,2.063e-05,0.0,0 STARLINK-3687,1 52110U 22029Y   23035.50177795  .00002063  00000-0  14764-3 0  9994,2 52110  53.2167 108.2387 0001096  94.3418 265.7700 15.08849403 50317,6917.852,95.437,540.475,538.958,0.0
52110.0,STARLINK-3687,PAYLOAD,2023-02-04 21:34:52,15.0884104,0.0001198,53.2174,106.4529,77.2445,282.8681,8.6982e-05,1.097e-05,0.0,0 STARLINK-3687,1 52110U 22029Y   23035.89922441  .00001097  00000-0  86982-4 0  9990,2 52110  53.2174 106.4529 0001198  77.2445 282.8681 15.08841040 50379,6917.877,95.437,540.571,538.913,0.0
52110.0,STARLINK-3687,PAYLOAD,2023-02-05 03:56:26,15.08833865,0.0001373,53.2187,105.2678,90.3792,269.7358,0.00012129,1.643e-05,0.0,0 STARLINK-3687,1 52110U 22029Y   23036.16419107  .00001643  00000-0  12129-3 0  9999,2 52110  53.2187 105.2678 0001373  90.3792 269.7358 15.08833865 50417,6917.899,95.438,540.714,538.814,0.0
52110.0,STARLINK-3687,PAYLOAD,2023-02-05 11:53:22,15.08830008,0.0001679,53.2185,103.7797,92.342,267.7765,0.00014684,2.049e-05,0.0,0 STARLINK-3687,1 52110U 22029Y   23036.49539402  .00002049  00000-0  14684-3 0  9995,2 52110  53.2185 103.7797 0001679  92.3420 267.7765 15.08830008 50460,6917.911,95.438,540.937,538.614,0.0
52110.0,STARLINK-3687,PAYLOAD,2023-02-05 21:25:40,15.08842594,0.0001273,53.2188,101.9958,90.3328,269.781,7.8941e-06,-1.62e-06,0.0,0 STARLINK-3687,1 52110U 22029Y   23036.89282892 -.00000162  00000-0  78941-5 0  9990,2 52110  53.2188 101.9958 0001273  90.3328 269.7810 15.08842594 50520,6917.872,95.437,540.618,538.857,0.0
52110.0,STARLINK-3687,PAYLOAD,2023-02-06 11:44:08,15.08847594,0.0001298,53.2174,99.3174,89.023,271.0911,-7.8655e-07,-3e-06,0.0,0 STARLINK-3687,1 52110U 22029Y   23037.48898568 -.00000300  00000-0 -78655-6 0  9997,2 52110  53.2174  99.3174 0001298  89.0230 271.0911 15.08847594 50612,6917.857,95.437,540.62,538.824,0.0
52110.0,STARLINK-3687,PAYLOAD,2023-02-07 09:59:31,15.08852165,0.0001624,53.2178,95.1577,74.607,285.5101,0.00022047,3.224e-05,0.0,0 STARLINK-3687,1 52110U 22029Y   23038.41633751  .00003224  00000-0  22047-3 0  9999,2 52110  53.2178  95.1577 0001624  74.6070 285.5101 15.08852165 50758,6917.843,95.437,540.832,538.585,0.0
52110.0,STARLINK-3687,PAYLOAD,2023-02-07 21:07:13,15.08845101,0.000151,53.2174,93.0734,88.7544,271.3621,9.0948e-05,1.16e-05,0.0,0 STARLINK-3687,1 52110U 22029Y   23038.88002284  .00001160  00000-0  90948-4 0  9994,2 52110  53.2174  93.0734 0001510  88.7544 271.3621 15.08845101 50822,6917.865,95.437,540.774,538.685,0.0
52110.0,STARLINK-3687,PAYLOAD,2023-02-08 09:50:18,15.0884306,0.0001738,53.2188,90.6922,126.0774,234.038,9.0524e-05,1.153e-05,0.0,0 STARLINK-3687,1 52110U 22029Y   23039.40994183  .00001153  00000-0  90524-4 0  9993,2 52110  53.2188  90.6922 0001738 126.0774 234.0380 15.08843060 50901,6917.871,95.437,540.938,538.534,0.0
52110.0,STARLINK-3687,PAYLOAD,2023-02-09 03:19:33,15.08838472,0.0001467,53.217,87.4256,83.9139,276.202,-7.0513e-05,-1.41e-05,0.0,0 STARLINK-3687,1 52110U 22029Y   23040.13858788 -.00001410  00000-0 -70513-4 0  9999,2 52110  53.2170  87.4256 0001467  83.9139 276.2020 15.08838472 51014,6917.885,95.438,540.765,538.735,0.0
52110.0,STARLINK-3687,PAYLOAD,2023-02-09 09:41:06,15.08842662,0.0001651,53.2175,86.2383,89.2005,270.9176,-0.00025893,-4.407e-05,0.0,0 STARLINK-3687,1 52110U 22029Y   23040.40354506 -.00004407  00000-0 -25893-3 0  9997,2 52110  53.2175  86.2383 0001651  89.2005 270.9176 15.08842662 51056,6917.872,95.437,540.879,538.595,0.0
52110.0,STARLINK-3687,PAYLOAD,2023-02-09 22:24:12,15.08828747,0.0001425,53.2174,83.8554,112.8949,247.2194,4.9408e-05,4.98e-06,0.0,0 STARLINK-3687,1 52110U 22029Y   23040.93347378  .00000498  00000-0  49408-4 0  9997,2 52110  53.2174  83.8554 0001425 112.8949 247.2194 15.08828747 51131,6917.915,95.438,540.766,538.794,0.0
52110.0,STARLINK-3687,PAYLOAD,2023-02-10 03:10:21,15.08827037,0.000117,53.2168,82.9616,95.3446,264.768,-7.8828e-06,-4.13e-06,0.0,0 STARLINK-3687,1 52110U 22029Y   23041.13219726 -.00000413  00000-0 -78828-5 0  9993,2 52110  53.2168  82.9616 0001170  95.3446 264.7680 15.08827037 51165,6917.92,95.438,540.594,538.976,0.0
52110.0,STARLINK-3687,PAYLOAD,2023-02-10 09:31:53,15.08839048,0.0001425,53.2171,81.7744,103.9078,256.2073,0.00017061,2.428e-05,0.0,0 STARLINK-3687,1 52110U 22029Y   23041.39715232  .00002428  00000-0  17061-3 0  9990,2 52110  53.2171  81.7744 0001425 103.9078 256.2073 15.08839048 51200,6917.883,95.438,540.734,538.763,0.0
52110.0,STARLINK-3687,PAYLOAD,2023-02-10 19:04:13,15.0883613,0.0001352,53.2165,79.989,100.7732,259.3412,0.00012619,1.721e-05,0.0,0 STARLINK-3687,1 52110U 22029Y   23041.79459543  .00001721  00000-0  12619-3 0  9993,2 52110  53.2165  79.9890 0001352 100.7732 259.3412 15.08836130 51261,6917.892,95.438,540.693,538.822,0.0
